NORAD_CAT_ID,OBJECT_NAME,OBJECT_TYPE,EPOCH,MEAN_MOTION,ECCENTRICITY,INCLINATION,RA_OF_ASC_NODE,ARG_OF_PERICENTER,MEAN_ANOMALY,BSTAR,MEAN_MOTION_DOT,MEAN_MOTION_DDOT,TLE_LINE0,TLE_LINE1,TLE_LINE2,SEMIMAJOR_AXIS,PERIOD,APOGEE,PERIGEE,DECAYED
52482.0,STARLINK-3813,PAYLOAD,2023-10-26 09:53:47,15.0884086,0.0001354,53.2187,333.5025,92.2961,267.8187,7.8361e-05,9.59e-06,0.0,0 STARLINK-3813,1 52482U 22049AH  23299.41235652  .00000959  00000-0  78361-4 0  9993,2 52482  53.2187 333.5025 0001354  92.2961 267.8187 15.08840860 81921,6917.878,95.438,540.679,538.806,0.0
52482.0,STARLINK-3813,PAYLOAD,2023-10-26 19:26:05,15.08851077,0.0001461,53.2191,331.7183,92.2224,267.8935,3.6259e-05,2.89e-06,0.0,0 STARLINK-3813,1 52482U 22049AH  23299.80978935  .00000289  00000-0  36259-4 0  9990,2 52482  53.2191 331.7183 0001461  92.2224 267.8935 15.08851077 81824,6917.847,95.437,540.722,538.701,0.0
52482.0,STARLINK-3813,PAYLOAD,2023-10-27 09:44:32,15.08867579,0.0001645,53.2174,329.0417,95.672,264.446,5.8144e-05,6.38e-06,0.0,0 STARLINK-3813,1 52482U 22049AH  23300.40593730  .00000638  00000-0  58144-4 0  9990,2 52482  53.2174 329.0417 0001645  95.6720 264.4460 15.08867579 82075,6917.796,95.436,540.799,538.523,0.0
52482.0,STARLINK-3813,PAYLOAD,2023-10-28 11:10:44,15.08837439,0.0001583,53.2166,324.2822,87.1946,272.9227,5.138e-05,5.3e-06,0.0,0 STARLINK-3813,1 52482U 22049AH  23301.46579477  .00000530  00000-0  51380-4 0  9995,2 52482  53.2166 324.2822 0001583  87.1946 272.9227 15.08837439 82235,6917.888,95.438,540.848,538.658,0.0
52482.0,STARLINK-3813,PAYLOAD,2023-10-28 19:07:40,15.0884077,0.0001673,53.2168,322.7957,86.1677,273.9506,0.00020017,2.899e-05,0.0,0 STARLINK-3813,1 52482U 22049AH  23301.79699582  .00002899  00000-0  20017-3 0  9993,2 52482  53.2168 322.7957 0001673  86.1677 273.9506 15.08840770 82120,6917.878,95.438,540.9,538.586,0.0
52482.0,STARLINK-3813,PAYLOAD,2023-10-29 07:50:45,15.08857344,0.0001634,53.2164,320.4157,85.6181,274.4998,0.00084334,0.00013166,0.0,0 STARLINK-3813,1 52482U 22049AH  23302.32691237  .00013166  00000-0  84334-3 0  9993,2 52482  53.2164 320.4157 0001634  85.6181 274.4998 15.08857344 82366,6917.827,95.436,540.823,538.562,0.0
52482.0,STARLINK-3813,PAYLOAD,2023-10-30 04:30:46,15.08843255,0.0001585,53.2168,316.5501,79.721,280.396,0.00026701,3.964e-05,0.0,0 STARLINK-3813,1 52482U 22049AH  23303.18803567  .00003964  00000-0  26701-3 0  9998,2 52482  53.2168 316.5501 0001585  79.7210 280.3960 15.08843255 82496,6917.87,95.437,540.832,538.639,0.0
52482.0,STARLINK-3813,PAYLOAD,2023-10-30 12:27:41,15.08845964,0.0001641,53.217,315.0632,89.9652,270.1528,0.00029188,4.361e-05,0.0,0 STARLINK-3813,1 52482U 22049AH  23303.51923496  .00004361  00000-0  29188-3 0  9993,2 52482  53.2170 315.0632 0001641  89.9652 270.1528 15.08845964 82388,6917.862,95.437,540.862,538.592,0.0
52482.0,STARLINK-3813,PAYLOAD,2023-10-31 04:21:33,15.08834129,0.0001878,53.2172,312.0895,95.6323,264.4883,0.00024332,3.586e-05,0.0,0 STARLINK-3813,1 52482U 22049AH  23304.18164119  .00003586  00000-0  24332-3 0  9990,2 52482  53.2172 312.0895 0001878  95.6323 264.4883 15.08834129 82649,6917.898,95.438,541.063,538.464,0.0
52482.0,STARLINK-3813,PAYLOAD,2023-10-31 05:56:56,15.08834953,0.0001916,53.2174,311.7922,93.621,266.5002,0.00032634,4.909e-05,0.0,0 STARLINK-3813,1 52482U 22049AH  23304.24788177  .00004909  00000-0  32634-3 0  9997,2 52482  53.2174 311.7922 0001916  93.6210 266.5002 15.08834953 82498,6917.896,95.438,541.086,538.435,0.0
52482.0,STARLINK-3813,PAYLOAD,2023-10-31 17:04:39,15.08839622,0.0001869,53.2179,309.7119,85.4861,274.6345,0.00058331,9.007e-05,0.0,0 STARLINK-3813,1 52482U 22049AH  23304.71156486  .00009007  00000-0  58331-3 0  9997,2 52482  53.2179 309.7119 0001869  85.4861 274.6345 15.08839622 82562,6917.882,95.438,541.039,538.454,0.0
52482.0,STARLINK-3813,PAYLOAD,2023-11-01 05:47:43,15.0885252,0.0001696,53.2171,307.3337,94.6993,265.4193,0.00067501,0.00010475,0.0,0 STARLINK-3813,1 52482U 22049AH  23305.24148111  .00010475  00000-0  67501-3 0  9992,2 52482  53.2171 307.3337 0001696  94.6993 265.4193 15.08852520 82804,6917.842,95.437,540.88,538.534,0.0
52482.0,STARLINK-3813,PAYLOAD,2023-11-01 16:55:25,15.08848935,0.0001631,53.2168,305.2509,93.2179,266.8999,0.0003552,5.371e-05,0.0,0 STARLINK-3813,1 52482U 22049AH  23305.70515958  .00005371  00000-0  35520-3 0  9995,2 52482  53.2168 305.2509 0001631  93.2179 266.8999 15.08848935 82879,6917.853,95.437,540.846,538.59,0.0
52482.0,STARLINK-3813,PAYLOAD,2023-11-02 04:03:07,15.08844273,0.0001982,53.2185,303.1769,123.3882,236.73,7.304e-05,8.75e-06,0.0,0 STARLINK-3813,1 52482U 22049AH  23306.16883938  .00000875  00000-0  73040-4 0  9996,2 52482  53.2185 303.1769 0001982 123.3882 236.7300 15.08844273 82949,6917.867,95.437,541.103,538.361,0.0
52482.0,STARLINK-3813,PAYLOAD,2023-11-02 08:49:16,15.08852853,0.0001729,53.217,302.2786,104.1502,255.9682,0.00039468,6.001e-05,0.0,0 STARLINK-3813,1 52482U 22049AH  23306.36755719  .00006001  00000-0  39468-3 0  9995,2 52482  53.2170 302.2786 0001729 104.1502 255.9682 15.08852853 82812,6917.841,95.437,540.902,538.51,0.0
52482.0,STARLINK-3813,PAYLOAD,2023-11-02 16:46:12,15.08844916,0.0001628,53.2165,300.7907,92.4575,267.6603,0.00013608,1.879e-05,0.0,0 STARLINK-3813,1 52482U 22049AH  23306.69875893  .00001879  00000-0  13608-3 0  9993,2 52482  53.2165 300.7907 0001628  92.4575 267.6603 15.08844916 82860,6917.865,95.437,540.857,538.604,0.0
52482.0,STARLINK-3813,PAYLOAD,2023-11-03 03:53:55,15.08840044,0.0001663,53.2173,298.7121,97.6356,262.4825,4.4806e-05,4.25e-06,0.0,0 STARLINK-3813,1 52482U 22049AH  23307.16244284  .00000425  00000-0  44806-4 0  9991,2 52482  53.2173 298.7121 0001663  97.6356 262.4825 15.08840044 83099,6917.88,95.438,540.896,538.595,0.0
52482.0,STARLINK-3813,PAYLOAD,2023-11-03 08:40:04,15.088424,0.0001719,53.2165,297.8185,93.4766,266.6423,7.9231e-05,9.73e-06,0.0,0 STARLINK-3813,1 52482U 22049AH  23307.36116098  .00000973  00000-0  79231-4 0  9992,2 52482  53.2165 297.8185 0001719  93.4766 266.6423 15.08842400 82964,6917.873,95.437,540.927,538.549,0.0
52482.0,STARLINK-3813,PAYLOAD,2023-11-03 16:37:00,15.08842005,0.0001745,53.2172,296.3296,90.59,269.5293,9.7174e-05,1.259e-05,0.0,0 STARLINK-3813,1 52482U 22049AH  23307.69236286  .00001259  00000-0  97174-4 0  9994,2 52482  53.2172 296.3296 0001745  90.5900 269.5293 15.08842005 83011,6917.874,95.437,540.946,538.532,0.0
52482.0,STARLINK-3813,PAYLOAD,2023-11-04 05:20:05,15.08839333,0.000161,53.218,293.9497,103.3783,256.7389,0.00013629,1.882e-05,0.0,0 STARLINK-3813,1 52482U 22049AH  23308.22228431  .00001882  00000-0  13629-3 0  9991,2 52482  53.2180 293.9497 0001610 103.3783 256.7389 15.08839333 83259,6917.882,95.438,540.861,538.634,0.0
52482.0,STARLINK-3813,PAYLOAD,2023-11-04 08:30:51,15.08846468,0.0001682,53.2169,293.3544,102.1478,257.9703,0.00025678,3.802e-05,0.0,0 STARLINK-3813,1 52482U 22049AH  23308.35476194  .00003802  00000-0  25678-3 0  9997,2 52482  53.2169 293.3544 0001682 102.1478 257.9703 15.08846468 83115,6917.861,95.437,540.889,538.562,0.0
52482.0,STARLINK-3813,PAYLOAD,2023-11-04 16:27:47,15.08837641,0.0001633,53.2171,291.8685,92.3696,267.7483,0.00010242,1.342e-05,0.0,0 STARLINK-3813,1 52482U 22049AH  23308.68596645  .00001342  00000-0  10242-3 0  9995,2 52482  53.2171 291.8685 0001633  92.3696 267.7483 15.08837641 83167,6917.888,95.438,540.882,538.623,0.0
52482.0,STARLINK-3813,PAYLOAD,2023-11-05 08:21:38,15.08860413,0.00017,53.2161,288.894,98.413,261.7055,0.0006926,0.00010758,0.0,0 STARLINK-3813,1 52482U 22049AH  23309.34836149  .00010758  00000-0  69260-3 0  9990,2 52482  53.2161 288.8940 0001700  98.4130 261.7055 15.08860413 83422,6917.818,95.436,540.859,538.507,0.0
52482.0,STARLINK-3813,PAYLOAD,2023-11-05 16:18:34,15.08848579,0.0001683,53.2163,287.4095,97.81,262.3083,0.00031042,4.657e-05,0.0,0 STARLINK-3813,1 52482U 22049AH  23309.67956279  .00004657  00000-0  31042-3 0  9991,2 52482  53.2163 287.4095 0001683  97.8100 262.3083 15.08848579 83472,6917.854,95.437,540.883,538.555,0.0
52482.0,STARLINK-3813,PAYLOAD,2023-11-06 03:26:15,15.08900064,0.0001696,53.2161,285.328,109.529,250.5885,0.002185,0.00034715,0.0,0 STARLINK-3813,1 52482U 22049AH  23310.14323021  .00034715  00000-0  21850-2 0  9991,2 52482  53.2161 285.3280 0001696 109.5290 250.5885 15.08900064 83543,6917.697,95.434,540.735,538.389,0.0
52482.0,STARLINK-3813,PAYLOAD,2023-11-06 05:01:38,15.08906052,0.0001698,53.2165,285.0317,99.6969,260.4215,0.0033863,0.00054117,0.0,0 STARLINK-3813,1 52482U 22049AH  23310.20946985  .00054117  00000-0  33863-2 0  9993,2 52482  53.2165 285.0317 0001698  99.6969 260.4215 15.08906052 83392,6917.679,95.433,540.718,538.369,0.0
52482.0,STARLINK-3813,PAYLOAD,2023-11-07 03:17:02,15.08820361,0.0001172,53.2166,280.8674,112.6885,247.4231,0.0013906,0.00021901,0.0,0 STARLINK-3813,1 52482U 22049AH  23311.13683885  .00021901  00000-0  13906-2 0  9994,2 52482  53.2166 280.8674 0001172 112.6885 247.4231 15.08820361 83696,6917.94,95.439,540.616,538.995,0.0
52482.0,STARLINK-3813,PAYLOAD,2023-11-07 08:03:12,15.08827868,9.29e-05,53.2164,279.9755,77.889,282.2206,0.0016664,0.00026323,0.0,0 STARLINK-3813,1 52482U 22049AH  23311.33556350  .00026323  00000-0  16664-2 0  9999,2 52482  53.2164 279.9755 0000929  77.8890 282.2206 15.08827868 83564,6917.917,95.438,540.425,539.14,0.0
52482.0,STARLINK-3813,PAYLOAD,2023-11-08 04:43:14,15.08852548,9.84e-05,53.2168,276.1114,88.6884,271.422,0.0019328,0.00030617,0.0,0 STARLINK-3813,1 52482U 22049AH  23312.19669009  .00030617  00000-0  19328-2 0  9991,2 52482  53.2168 276.1114 0000984  88.6884 271.4220 15.08852548 83851,6917.842,95.437,540.388,539.026,0.0
52482.0,STARLINK-3813,PAYLOAD,2023-11-09 04:34:00,15.08876736,0.0001124,53.217,271.6501,100.0195,260.0924,0.0017783,0.00028156,0.0,0 STARLINK-3813,1 52482U 22049AH  23313.19028239  .00028156  00000-0  17783-2 0  9994,2 52482  53.2170 271.6501 0001124 100.0195 260.0924 15.08876736 84003,6917.768,95.435,540.411,538.856,0.0
